ONEWEB-0056             
1 45159U 20008AE  26139.26836784  .00000330  00000+0  90320-3 0  9991
2 45159  87.8857  42.0156 0001680  85.9118 274.2202 13.10841209304391
ONEWEB-0057             
1 45160U 20008AF  26139.28445505 -.00000262  00000+0 -78814-3 0  9992
2 45160  87.8854  42.0251 0002354  84.5672 275.5724 13.10371395304561
ONEWEB-0058             
1 45161U 20008AG  26139.27118413  .00000352  00000+0  97301-3 0  9997
2 45161  87.8851  42.0350 0001783  72.0282 288.1040 13.10370522304633
ONEWEB-0059             
1 45162U 20008AH  26139.26777530 -.00002061  00000+0 -59431-2 0  9990
2 45162  87.8850  42.0346 0001889  73.2693 286.8642 13.10345932304533
ONEWEB-0062             
1 45163U 20008AJ  26139.21445174 -.00000592  00000+0 -17310-2 0  9999
2 45163  87.8859  42.0299 0001509  67.3637 292.7650 13.10371997304390
ONEWEB-0065             
1 45164U 20008AK  26139.24767673  .00000570  00000+0  15959-2 0  9995
2 45164  87.8861  42.0320 0002094  88.4274 271.7093 13.10375162304093
ONEWEB-0066             
1 45424U 20020A   26139.23021877  .00000242  00000+0  64810-3 0  9993
2 45424  87.8915  26.8311 0001913  76.3293 283.8048 13.11415036298887
ONEWEB-0067             
1 45425U 20020B   26139.19194441 -.00000075  00000+0 -24663-3 0  9995
2 45425  87.8938  26.7557 0001986  85.2703 274.8652 13.11424399298938
ONEWEB-0080             
1 45426U 20020C   26139.19135384 -.00000068  00000+0 -22722-3 0  9993
2 45426  87.8928  26.8327 0001587  73.9483 286.1820 13.11420817298901
ONEWEB-0090             
1 45427U 20020D   26139.22018786  .00000570  00000+0  15727-2 0  9996
2 45427  87.8921  26.8320 0001759  80.3586 279.7741 13.11415574298875
ONEWEB-0061             
1 45428U 20020E   26139.25210724 -.00000491  00000+0 -14218-2 0  9994
2 45428  87.8922  26.8108 0001823  79.6151 280.5183 13.11415692298839
ONEWEB-0081             
1 45429U 20020F   26139.23361061  .00000091  00000+0  21984-3 0  9997
2 45429  87.8915  26.8259 0001997  79.7853 280.3501 13.11414852298942
ONEWEB-0069             
1 45430U 20020G   26139.23257090  .00000097  00000+0  24024-3 0  9999
2 45430  87.8916  26.8272 0001900  80.7639 279.3703 13.10856982298875
ONEWEB-0031             
1 45431U 20020H   26139.19460958  .00000027  00000+0  39812-4 0  9999
2 45431  87.8912  26.8433 0001672  78.0177 282.1138 13.11418250298859
ONEWEB-0027             
1 45432U 20020J   26138.08394631 -.00041365  00000+0 -10769+0 0  9998
2 45432  87.9187  11.8320 0001470  89.4935 270.6365 13.17244827302390
ONEWEB-0064             
1 45433U 20020K   26139.19293036 -.00000575  00000+0 -16580-2 0  9997
2 45433  87.8914  26.8344 0001599  80.4282 279.7027 13.11424123298884
