[{"OBJECT_NAME":"ONEWEB-0056","OBJECT_ID":"2020-008AE","EPOCH":"2026-05-19T06:26:26.981376","MEAN_MOTION":13.10841209,"ECCENTRICITY":0.000168,"INCLINATION":87.8857,"RA_OF_ASC_NODE":42.0156,"ARG_OF_PERICENTER":85.9118,"MEAN_ANOMALY":274.2202,"EPHEMERIS_TYPE":0,"CLASSIFICATION_TYPE":"U","NORAD_CAT_ID":45159,"ELEMENT_SET_NO":999,"REV_AT_EPOCH":30439,"BSTAR":0.0009032,"MEAN_MOTION_DOT":3.3e-06,"MEAN_MOTION_DDOT":0.0},{"OBJECT_NAME":"ONEWEB-0057","OBJECT_ID":"2020-008AF","EPOCH":"2026-05-19T06:49:36.916320","MEAN_MOTION":13.10371395,"ECCENTRICITY":0.0002354,"INCLINATION":87.8854,"RA_OF_ASC_NODE":42.0251,"ARG_OF_PERICENTER":84.5672,"MEAN_ANOMALY":275.5724,"EPHEMERIS_TYPE":0,"CLASSIFICATION_TYPE":"U","NORAD_CAT_ID":45160,"ELEMENT_SET_NO":999,"REV_AT_EPOCH":30456,"BSTAR":-0.00078814,"MEAN_MOTION_DOT":-2.62e-06,"MEAN_MOTION_DDOT":0.0},{"OBJECT_NAME":"ONEWEB-0058","OBJECT_ID":"2020-008AG","EPOCH":"2026-05-19T06:30:30.308832","MEAN_MOTION":13.10370522,"ECCENTRICITY":0.0001783,"INCLINATION":87.8851,"RA_OF_ASC_NODE":42.035,"ARG_OF_PERICENTER":72.0282,"MEAN_ANOMALY":288.104,"EPHEMERIS_TYPE":0,"CLASSIFICATION_TYPE":"U","NORAD_CAT_ID":45161,"ELEMENT_SET_NO":999,"REV_AT_EPOCH":30463,"BSTAR":0.0009730100000000001,"MEAN_MOTION_DOT":3.52e-06,"MEAN_MOTION_DDOT":0.0},{"OBJECT_NAME":"ONEWEB-0059","OBJECT_ID":"2020-008AH","EPOCH":"2026-05-19T06:25:35.785920","MEAN_MOTION":13.10345932,"ECCENTRICITY":0.0001889,"INCLINATION":87.885,"RA_OF_ASC_NODE":42.0346,"ARG_OF_PERICENTER":73.2693,"MEAN_ANOMALY":286.8642,"EPHEMERIS_TYPE":0,"CLASSIFICATION_TYPE":"U","NORAD_CAT_ID":45162,"ELEMENT_SET_NO":999,"REV_AT_EPOCH":30453,"BSTAR":-0.0059431,"MEAN_MOTION_DOT":-2.061e-05,"MEAN_MOTION_DDOT":0.0},{"OBJECT_NAME":"ONEWEB-0062","OBJECT_ID":"2020-008AJ","EPOCH":"2026-05-19T05:08:48.630336","MEAN_MOTION":13.10371997,"ECCENTRICITY":0.0001509,"INCLINATION":87.8859,"RA_OF_ASC_NODE":42.0299,"ARG_OF_PERICENTER":67.3637,"MEAN_ANOMALY":292.765,"EPHEMERIS_TYPE":0,"CLASSIFICATION_TYPE":"U","NORAD_CAT_ID":45163,"ELEMENT_SET_NO":999,"REV_AT_EPOCH":30439,"BSTAR":-0.0017310000000000001,"MEAN_MOTION_DOT":-5.92e-06,"MEAN_MOTION_DDOT":0.0},{"OBJECT_NAME":"ONEWEB-0065","OBJECT_ID":"2020-008AK","EPOCH":"2026-05-19T05:56:39.269472","MEAN_MOTION":13.10375162,"ECCENTRICITY":0.0002094,"INCLINATION":87.8861,"RA_OF_ASC_NODE":42.032,"ARG_OF_PERICENTER":88.4274,"MEAN_ANOMALY":271.7093,"EPHEMERIS_TYPE":0,"CLASSIFICATION_TYPE":"U","NORAD_CAT_ID":45164,"ELEMENT_SET_NO":999,"REV_AT_EPOCH":30409,"BSTAR":0.0015959000000000001,"MEAN_MOTION_DOT":5.7e-06,"MEAN_MOTION_DDOT":0.0},{"OBJECT_NAME":"ONEWEB-0066","OBJECT_ID":"2020-020A","EPOCH":"2026-05-19T05:31:30.901728","MEAN_MOTION":13.11415036,"ECCENTRICITY":0.0001913,"INCLINATION":87.8915,"RA_OF_ASC_NODE":26.8311,"ARG_OF_PERICENTER":76.3293,"MEAN_ANOMALY":283.8048,"EPHEMERIS_TYPE":0,"CLASSIFICATION_TYPE":"U","NORAD_CAT_ID":45424,"ELEMENT_SET_NO":999,"REV_AT_EPOCH":29888,"BSTAR":0.0006481,"MEAN_MOTION_DOT":2.42e-06,"MEAN_MOTION_DDOT":0.0},{"OBJECT_NAME":"ONEWEB-0067","OBJECT_ID":"2020-020B","EPOCH":"2026-05-19T04:36:23.997024","MEAN_MOTION":13.11424399,"ECCENTRICITY":0.0001986,"INCLINATION":87.8938,"RA_OF_ASC_NODE":26.7557,"ARG_OF_PERICENTER":85.2703,"MEAN_ANOMALY":274.8652,"EPHEMERIS_TYPE":0,"CLASSIFICATION_TYPE":"U","NORAD_CAT_ID":45425,"ELEMENT_SET_NO":999,"REV_AT_EPOCH":29893,"BSTAR":-0.00024663,"MEAN_MOTION_DOT":-7.5e-07,"MEAN_MOTION_DDOT":0.0},{"OBJECT_NAME":"ONEWEB-0080","OBJECT_ID":"2020-020C","EPOCH":"2026-05-19T04:35:32.971776","MEAN_MOTION":13.11420817,"ECCENTRICITY":0.0001587,"INCLINATION":87.8928,"RA_OF_ASC_NODE":26.8327,"ARG_OF_PERICENTER":73.9483,"MEAN_ANOMALY":286.182,"EPHEMERIS_TYPE":0,"CLASSIFICATION_TYPE":"U","NORAD_CAT_ID":45426,"ELEMENT_SET_NO":999,"REV_AT_EPOCH":29890,"BSTAR":-0.00022722,"MEAN_MOTION_DOT":-6.8e-07,"MEAN_MOTION_DDOT":0.0},{"OBJECT_NAME":"ONEWEB-0090","OBJECT_ID":"2020-020D","EPOCH":"2026-05-19T05:17:04.231104","MEAN_MOTION":13.11415574,"ECCENTRICITY":0.0001759,"INCLINATION":87.8921,"RA_OF_ASC_NODE":26.832,"ARG_OF_PERICENTER":80.3586,"MEAN_ANOMALY":279.7741,"EPHEMERIS_TYPE":0,"CLASSIFICATION_TYPE":"U","NORAD_CAT_ID":45427,"ELEMENT_SET_NO":999,"REV_AT_EPOCH":29887,"BSTAR":0.0015727,"MEAN_MOTION_DOT":5.7e-06,"MEAN_MOTION_DDOT":0.0},{"OBJECT_NAME":"ONEWEB-0061","OBJECT_ID":"2020-020E","EPOCH":"2026-05-19T06:03:02.065536","MEAN_MOTION":13.11415692,"ECCENTRICITY":0.0001823,"INCLINATION":87.8922,"RA_OF_ASC_NODE":26.8108,"ARG_OF_PERICENTER":79.6151,"MEAN_ANOMALY":280.5183,"EPHEMERIS_TYPE":0,"CLASSIFICATION_TYPE":"U","NORAD_CAT_ID":45428,"ELEMENT_SET_NO":999,"REV_AT_EPOCH":29883,"BSTAR":-0.0014218,"MEAN_MOTION_DOT":-4.91e-06,"MEAN_MOTION_DDOT":0.0},{"OBJECT_NAME":"ONEWEB-0081","OBJECT_ID":"2020-020F","EPOCH":"2026-05-19T05:36:23.956704","MEAN_MOTION":13.11414852,"ECCENTRICITY":0.0001997,"INCLINATION":87.8915,"RA_OF_ASC_NODE":26.8259,"ARG_OF_PERICENTER":79.7853,"MEAN_ANOMALY":280.3501,"EPHEMERIS_TYPE":0,"CLASSIFICATION_TYPE":"U","NORAD_CAT_ID":45429,"ELEMENT_SET_NO":999,"REV_AT_EPOCH":29894,"BSTAR":0.00021984,"MEAN_MOTION_DOT":9.1e-07,"MEAN_MOTION_DDOT":0.0},{"OBJECT_NAME":"ONEWEB-0069","OBJECT_ID":"2020-020G","EPOCH":"2026-05-19T05:34:54.125760","MEAN_MOTION":13.10856982,"ECCENTRICITY":0.00019,"INCLINATION":87.8916,"RA_OF_ASC_NODE":26.8272,"ARG_OF_PERICENTER":80.7639,"MEAN_ANOMALY":279.3703,"EPHEMERIS_TYPE":0,"CLASSIFICATION_TYPE":"U","NORAD_CAT_ID":45430,"ELEMENT_SET_NO":999,"REV_AT_EPOCH":29887,"BSTAR":0.00024024000000000002,"MEAN_MOTION_DOT":9.7e-07,"MEAN_MOTION_DDOT":0.0},{"OBJECT_NAME":"ONEWEB-0031","OBJECT_ID":"2020-020H","EPOCH":"2026-05-19T04:40:14.267712","MEAN_MOTION":13.1141825,"ECCENTRICITY":0.0001672,"INCLINATION":87.8912,"RA_OF_ASC_NODE":26.8433,"ARG_OF_PERICENTER":78.0177,"MEAN_ANOMALY":282.1138,"EPHEMERIS_TYPE":0,"CLASSIFICATION_TYPE":"U","NORAD_CAT_ID":45431,"ELEMENT_SET_NO":999,"REV_AT_EPOCH":29885,"BSTAR":3.9812e-05,"MEAN_MOTION_DOT":2.7e-07,"MEAN_MOTION_DDOT":0.0},{"OBJECT_NAME":"ONEWEB-0027","OBJECT_ID":"2020-020J","EPOCH":"2026-05-18T02:00:52.961184","MEAN_MOTION":13.17244827,"ECCENTRICITY":0.000147,"INCLINATION":87.9187,"RA_OF_ASC_NODE":11.832,"ARG_OF_PERICENTER":89.4935,"MEAN_ANOMALY":270.6365,"EPHEMERIS_TYPE":0,"CLASSIFICATION_TYPE":"U","NORAD_CAT_ID":45432,"ELEMENT_SET_NO":999,"REV_AT_EPOCH":30239,"BSTAR":-0.10769,"MEAN_MOTION_DOT":-0.00041365,"MEAN_MOTION_DDOT":0.0},{"OBJECT_NAME":"ONEWEB-0064","OBJECT_ID":"2020-020K","EPOCH":"2026-05-19T04:37:49.183104","MEAN_MOTION":13.11424123,"ECCENTRICITY":0.0001599,"INCLINATION":87.8914,"RA_OF_ASC_NODE":26.8344,"ARG_OF_PERICENTER":80.4282,"MEAN_ANOMALY":279.7027,"EPHEMERIS_TYPE":0,"CLASSIFICATION_TYPE":"U","NORAD_CAT_ID":45433,"ELEMENT_SET_NO":999,"REV_AT_EPOCH":29888,"BSTAR":-0.001658,"MEAN_MOTION_DOT":-5.75e-06,"MEAN_MOTION_DDOT":0.0}]